{
    "links": {
        "self": "http://www.neowsapp.com/rest/v1/neo/3582518?api_key=iIulBulltgU6a56xZRHN4H3l9WmuAYTsLGpBGhQ2"
    },
    "id": "3582518",
    "neo_reference_id": "3582518",
    "name": "(2011 UX63)",
    "designation": "2011 UX63",
    "nasa_jpl_url": "http://ssd.jpl.nasa.gov/sbdb.cgi?sstr=3582518",
    "absolute_magnitude_h": 24.5,
    "estimated_diameter": {
        "kilometers": {
            "estimated_diameter_min": 0.0334622374,
            "estimated_diameter_max": 0.0748238376
        },
        "meters": {
            "estimated_diameter_min": 33.4622374455,
            "estimated_diameter_max": 74.8238376074
        },
        "miles": {
            "estimated_diameter_min": 0.0207924639,
            "estimated_diameter_max": 0.0464933628
        },
        "feet": {
            "estimated_diameter_min": 109.7842471007,
            "estimated_diameter_max": 245.4850393757
        }
    },
    "is_potentially_hazardous_asteroid": false,
    "close_approach_data": [
        {
            "close_approach_date": "2011-10-06",
            "close_approach_date_full": "2011-Oct-06 08:57",
            "epoch_date_close_approach": 1317891420000,
            "relative_velocity": {
                "kilometers_per_second": "5.9045438905",
                "kilometers_per_hour": "21256.3580059694",
                "miles_per_hour": "13207.8742287647"
            },
            "miss_distance": {
                "astronomical": "0.1068925797",
                "lunar": "41.5812135033",
                "kilometers": "15990902.241925239",
                "miles": "9936285.9014327382"
            },
            "orbiting_body": "Earth"
        }
    ],
    "orbital_data": {
        "orbit_id": "5",
        "orbit_determination_date": "2017-04-06 08:52:20",
        "first_observation_date": "2011-10-21",
        "last_observation_date": "2011-11-02",
        "data_arc_in_days": 12,
        "observations_used": 24,
        "orbit_uncertainty": "8",
        "minimum_orbit_intersection": ".10664",
        "jupiter_tisserand_invariant": "3.420",
        "epoch_osculation": "2455858.5",
        "eccentricity": ".5130136770058266",
        "semi_major_axis": "2.271873880290815",
        "inclination": "5.401325346213766",
        "ascending_node_longitude": "14.72991299381139",
        "orbital_period": "1250.762219882763",
        "perihelion_distance": "1.106371507269329",
        "perihelion_argument": "358.9990041292113",
        "aphelion_distance": "3.437376253312301",
        "perihelion_time": "2455842.265299642885",
        "mean_anomaly": "4.672744375912809",
        "mean_motion": ".2878244915598296",
        "equinox": "J2000",
        "orbit_class": {
            "orbit_class_type": "AMO",
            "orbit_class_description": "Near-Earth asteroid orbits similar to that of 1221 Amor",
            "orbit_class_range": "1.017 AU < q (perihelion) < 1.3 AU"
        }
    },
    "is_sentry_object": false
}